IRIDIUM 921             
1 24873U 97034E   24143.89027952  .00035702  00000+0  95747-3 0  9994
2 24873  86.3788 300.6289 0003319   8.7716 351.3594 15.37815682471579
IRIDIUM 26              
1 24903U 97043A   24144.45905535  .00000992  00000+0  33249-3 0  9995
2 24903  86.3938 274.1310 0001951  88.9483 271.1938 14.36368452401256
IRIDIUM 22              
1 24907U 97043E   24143.86812935  .00001001  00000+0  34299-3 0  9992
2 24907  86.3939 277.5979 0002150  92.7393 267.4049 14.35256830400776
DUMMY MASS 1            
1 24925U 97048A   24143.87738597  .00000997  00000+0  11027-3 0  9996
2 24925  86.3317 315.6909 0009186  89.8653 270.3624 14.86208844447147
DUMMY MASS 2            
1 24926U 97048B   24143.97723868  .00000966  00000+0  10746-3 0  9996
2 24926  86.3317 317.1837 0009947  98.1014 262.1339 14.85967206447183
IRIDIUM 29              
1 24944U 97051A   24144.50615850  .00000904  00000+0  30653-3 0  9992
2 24944  86.3924 307.2576 0002372  90.4730 269.6739 14.35705430397568
IRIDIUM 33              
1 24946U 97051C   24144.50975318  .00000671  00000+0  23192-3 0  9993
2 24946  86.3840 306.5089 0005769 270.4917  89.5617 14.34363504396887
IRIDIUM 28              
1 24948U 97051E   24144.52642318  .00000955  00000+0  31783-3 0  9998
2 24948  86.3929 304.9862 0001707  86.8418 273.2975 14.36658057397951
